WNISAT 1R               
1 42835U 17042L   26068.86192839  .00004802  00000+0  37840-3 0  9992
2 42835  97.4515 228.7079 0013301 131.3338 228.9034 15.01153186471607
STARLINK-4454           
1 53499U 22099AL  26068.87990284  .00000488  00000+0  38064-4 0  9995
2 53499  97.6040 191.4609 0000742 230.7408 129.3753 15.05646203196081
